{
  "norad_id": 66825,
  "name": "STARLINK-35476",
  "history": [
    {
      "epoch": "2026-03-28T22:11:26.469024",
      "apogee_km": 574.1804012978673,
      "perigee_km": 569.9532873197586,
      "latitude_deg": 32.32002044705288,
      "longitude_deg": -128.73725664010271,
      "semi_major_axis_km": 6950.203844308813,
      "eccentricity": 0.0003041,
      "inclination_deg": 69.9999,
      "raan_deg": 286.0947,
      "arg_perigee_deg": 270.3669,
      "mean_anomaly_deg": 89.7141,
      "mean_motion_rev_day": 14.98326458
    }
  ]
}